GLOBALSTAR M063         
1 26081U 00008A   25283.46117814 -.00000036  00000+0  67629-3 0  9999
2 26081  51.9937 167.9807 0004348 165.0811   6.1201 11.86175814171250
GLOBALSTAR M062         
1 26082U 00008B   25283.54343958 -.00000061  00000+0  26936-3 0  9993
2 26082  51.9822 116.5515 0007225   6.1771  23.0235 12.43474310510975
GLOBALSTAR M060         
1 26083U 00008C   25283.46650079 -.00000096  00000+0 -53801-4 0  9991
2 26083  52.0000  93.0930 0003334  17.3901 359.1541 12.17667418166415
GLOBALSTAR M064         
1 26084U 00008D   25283.27561412 -.00000079  00000+0  57146-4 0  9999
2 26084  52.0020 265.9415 0001345 292.2249  67.8440 11.88537336180784
GLOBALSTAR M065         
1 31571U 07020A   25283.15822316 -.00000128  00000+0 -13356-3 0  9997
2 31571  51.9887 236.3297 0009608 201.2055 279.7817 12.62009511847925
GLOBALSTAR M069         
1 31573U 07020C   25283.30026480 -.00000057  00000+0  32855-3 0  9999
2 31573  52.0019 239.3996 0002117   5.1759 142.9702 12.23462048848217
GLOBALSTAR M072         
1 31574U 07020D   25283.51524259 -.00000096  00000+0 -16510-3 0  9994
2 31574  51.9949  44.9353 0001463 159.9567 279.2328 11.91652038845212
GLOBALSTAR M071         
1 31576U 07020F   25283.22867860 -.00000137  00000+0 -45582-3 0  9999
2 31576  52.0050 268.4655 0000993 357.4835  15.4693 12.18259587508962
